ONEWEB-0589             
1 54655U 22166P   24205.21194544  .00000045  00000+0  78541-4 0  9992
2 54655  87.9284  22.1357 0002762  97.1843 262.9605 13.21824453 80331
ONEWEB-0590             
1 54656U 22166Q   24204.93281457  .00000058  00000+0  10906-3 0  9995
2 54656  87.9288  22.1997 0001719  93.4474 266.6856 13.21825917 79812
ONEWEB-0591             
1 54657U 22166R   24205.02111282  .00000036  00000+0  55409-4 0  9999
2 54657  87.9282  22.1766 0001949  91.9220 268.2138 13.21824960 80313
ONEWEB-0592             
1 54658U 22166S   24205.47845367 -.00000084  00000+0 -23370-3 0  9993
2 54658  87.9280  22.0498 0001956  96.3931 263.7426 13.21826602 80268
ONEWEB-0593             
1 54659U 22166T   24205.50210621  .00000046  00000+0  80951-4 0  9992
2 54659  87.9281  22.0715 0002069  93.1322 267.0049 13.21826791 80376
ONEWEB-0594             
1 54660U 22166U   24205.44533724  .00000049  00000+0  88349-4 0  9991
2 54660  87.9287  22.0841 0001801  86.0426 274.0913 13.21825796 80375
ONEWEB-0595             
1 54661U 22166V   24205.49894586  .00000023  00000+0  24399-4 0  9990
2 54661  87.9282  22.0600 0001606  91.3728 268.7590 13.21824300 80361
ONEWEB-0596             
1 54662U 22166W   24204.94227342  .00000037  00000+0  58580-4 0  9994
2 54662  87.9287  22.1770 0002029  97.8306 262.3059 13.21826954 79825
