<?xml version="1.0" encoding="UTF-8"?>
<ndm xmlns:xsi="http://www.w3.org/2001/XMLSchema-instance" xsi:noNamespaceSchemaLocation="https://sanaregistry.org/r/ndmxml_unqualified/ndmxml-2.0.0-master-2.0.xsd">
<omm id="CCSDS_OMM_VERS" version="2.0">
<header><CREATION_DATE/><ORIGINATOR/></header><body><segment><metadata><OBJECT_NAME>ONEWEB-0589</OBJECT_NAME><OBJECT_ID>2022-166P</OBJECT_ID><CENTER_NAME>EARTH</CENTER_NAME><REF_FRAME>TEME</REF_FRAME><TIME_SYSTEM>UTC</TIME_SYSTEM><MEAN_ELEMENT_THEORY>SGP4</MEAN_ELEMENT_THEORY></metadata><data><meanElements><EPOCH>2024-07-23T05:05:12.086016</EPOCH><MEAN_MOTION>13.21824453</MEAN_MOTION><ECCENTRICITY>.0002762</ECCENTRICITY><INCLINATION>87.9284</INCLINATION><RA_OF_ASC_NODE>22.1357</RA_OF_ASC_NODE><ARG_OF_PERICENTER>97.1843</ARG_OF_PERICENTER><MEAN_ANOMALY>262.9605</MEAN_ANOMALY></meanElements><tleParameters><EPHEMERIS_TYPE>0</EPHEMERIS_TYPE><CLASSIFICATION_TYPE>U</CLASSIFICATION_TYPE><NORAD_CAT_ID>54655</NORAD_CAT_ID><ELEMENT_SET_NO>999</ELEMENT_SET_NO><REV_AT_EPOCH>8033</REV_AT_EPOCH><BSTAR>.78541E-4</BSTAR><MEAN_MOTION_DOT>.45E-6</MEAN_MOTION_DOT><MEAN_MOTION_DDOT>0</MEAN_MOTION_DDOT></tleParameters></data></segment></body></omm>
<omm id="CCSDS_OMM_VERS" version="2.0">
<header><CREATION_DATE/><ORIGINATOR/></header><body><segment><metadata><OBJECT_NAME>ONEWEB-0590</OBJECT_NAME><OBJECT_ID>2022-166Q</OBJECT_ID><CENTER_NAME>EARTH</CENTER_NAME><REF_FRAME>TEME</REF_FRAME><TIME_SYSTEM>UTC</TIME_SYSTEM><MEAN_ELEMENT_THEORY>SGP4</MEAN_ELEMENT_THEORY></metadata><data><meanElements><EPOCH>2024-07-22T22:23:15.178848</EPOCH><MEAN_MOTION>13.21825917</MEAN_MOTION><ECCENTRICITY>.0001719</ECCENTRICITY><INCLINATION>87.9288</INCLINATION><RA_OF_ASC_NODE>22.1997</RA_OF_ASC_NODE><ARG_OF_PERICENTER>93.4474</ARG_OF_PERICENTER><MEAN_ANOMALY>266.6856</MEAN_ANOMALY></meanElements><tleParameters><EPHEMERIS_TYPE>0</EPHEMERIS_TYPE><CLASSIFICATION_TYPE>U</CLASSIFICATION_TYPE><NORAD_CAT_ID>54656</NORAD_CAT_ID><ELEMENT_SET_NO>999</ELEMENT_SET_NO><REV_AT_EPOCH>7981</REV_AT_EPOCH><BSTAR>.10906E-3</BSTAR><MEAN_MOTION_DOT>.58E-6</MEAN_MOTION_DOT><MEAN_MOTION_DDOT>0</MEAN_MOTION_DDOT></tleParameters></data></segment></body></omm>
<omm id="CCSDS_OMM_VERS" version="2.0">
<header><CREATION_DATE/><ORIGINATOR/></header><body><segment><metadata><OBJECT_NAME>ONEWEB-0591</OBJECT_NAME><OBJECT_ID>2022-166R</OBJECT_ID><CENTER_NAME>EARTH</CENTER_NAME><REF_FRAME>TEME</REF_FRAME><TIME_SYSTEM>UTC</TIME_SYSTEM><MEAN_ELEMENT_THEORY>SGP4</MEAN_ELEMENT_THEORY></metadata><data><meanElements><EPOCH>2024-07-23T00:30:24.147648</EPOCH><MEAN_MOTION>13.21824960</MEAN_MOTION><ECCENTRICITY>.0001949</ECCENTRICITY><INCLINATION>87.9282</INCLINATION><RA_OF_ASC_NODE>22.1766</RA_OF_ASC_NODE><ARG_OF_PERICENTER>91.9220</ARG_OF_PERICENTER><MEAN_ANOMALY>268.2138</MEAN_ANOMALY></meanElements><tleParameters><EPHEMERIS_TYPE>0</EPHEMERIS_TYPE><CLASSIFICATION_TYPE>U</CLASSIFICATION_TYPE><NORAD_CAT_ID>54657</NORAD_CAT_ID><ELEMENT_SET_NO>999</ELEMENT_SET_NO><REV_AT_EPOCH>8031</REV_AT_EPOCH><BSTAR>.55409E-4</BSTAR><MEAN_MOTION_DOT>.36E-6</MEAN_MOTION_DOT><MEAN_MOTION_DDOT>0</MEAN_MOTION_DDOT></tleParameters></data></segment></body></omm>
<omm id="CCSDS_OMM_VERS" version="2.0">
<header><CREATION_DATE/><ORIGINATOR/></header><body><segment><metadata><OBJECT_NAME>ONEWEB-0592</OBJECT_NAME><OBJECT_ID>2022-166S</OBJECT_ID><CENTER_NAME>EARTH</CENTER_NAME><REF_FRAME>TEME</REF_FRAME><TIME_SYSTEM>UTC</TIME_SYSTEM><MEAN_ELEMENT_THEORY>SGP4</MEAN_ELEMENT_THEORY></metadata><data><meanElements><EPOCH>2024-07-23T11:28:58.397088</EPOCH><MEAN_MOTION>13.21826602</MEAN_MOTION><ECCENTRICITY>.0001956</ECCENTRICITY><INCLINATION>87.9280</INCLINATION><RA_OF_ASC_NODE>22.0498</RA_OF_ASC_NODE><ARG_OF_PERICENTER>96.3931</ARG_OF_PERICENTER><MEAN_ANOMALY>263.7426</MEAN_ANOMALY></meanElements><tleParameters><EPHEMERIS_TYPE>0</EPHEMERIS_TYPE><CLASSIFICATION_TYPE>U</CLASSIFICATION_TYPE><NORAD_CAT_ID>54658</NORAD_CAT_ID><ELEMENT_SET_NO>999</ELEMENT_SET_NO><REV_AT_EPOCH>8026</REV_AT_EPOCH><BSTAR>-.2337E-3</BSTAR><MEAN_MOTION_DOT>-.84E-6</MEAN_MOTION_DOT><MEAN_MOTION_DDOT>0</MEAN_MOTION_DDOT></tleParameters></data></segment></body></omm>
<omm id="CCSDS_OMM_VERS" version="2.0">
<header><CREATION_DATE/><ORIGINATOR/></header><body><segment><metadata><OBJECT_NAME>ONEWEB-0593</OBJECT_NAME><OBJECT_ID>2022-166T</OBJECT_ID><CENTER_NAME>EARTH</CENTER_NAME><REF_FRAME>TEME</REF_FRAME><TIME_SYSTEM>UTC</TIME_SYSTEM><MEAN_ELEMENT_THEORY>SGP4</MEAN_ELEMENT_THEORY></metadata><data><meanElements><EPOCH>2024-07-23T12:03:01.976544</EPOCH><MEAN_MOTION>13.21826791</MEAN_MOTION><ECCENTRICITY>.0002069</ECCENTRICITY><INCLINATION>87.9281</INCLINATION><RA_OF_ASC_NODE>22.0715</RA_OF_ASC_NODE><ARG_OF_PERICENTER>93.1322</ARG_OF_PERICENTER><MEAN_ANOMALY>267.0049</MEAN_ANOMALY></meanElements><tleParameters><EPHEMERIS_TYPE>0</EPHEMERIS_TYPE><CLASSIFICATION_TYPE>U</CLASSIFICATION_TYPE><NORAD_CAT_ID>54659</NORAD_CAT_ID><ELEMENT_SET_NO>999</ELEMENT_SET_NO><REV_AT_EPOCH>8037</REV_AT_EPOCH><BSTAR>.80951E-4</BSTAR><MEAN_MOTION_DOT>.46E-6</MEAN_MOTION_DOT><MEAN_MOTION_DDOT>0</MEAN_MOTION_DDOT></tleParameters></data></segment></body></omm>
<omm id="CCSDS_OMM_VERS" version="2.0">
<header><CREATION_DATE/><ORIGINATOR/></header><body><segment><metadata><OBJECT_NAME>ONEWEB-0594</OBJECT_NAME><OBJECT_ID>2022-166U</OBJECT_ID><CENTER_NAME>EARTH</CENTER_NAME><REF_FRAME>TEME</REF_FRAME><TIME_SYSTEM>UTC</TIME_SYSTEM><MEAN_ELEMENT_THEORY>SGP4</MEAN_ELEMENT_THEORY></metadata><data><meanElements><EPOCH>2024-07-23T10:41:17.137536</EPOCH><MEAN_MOTION>13.21825796</MEAN_MOTION><ECCENTRICITY>.0001801</ECCENTRICITY><INCLINATION>87.9287</INCLINATION><RA_OF_ASC_NODE>22.0841</RA_OF_ASC_NODE><ARG_OF_PERICENTER>86.0426</ARG_OF_PERICENTER><MEAN_ANOMALY>274.0913</MEAN_ANOMALY></meanElements><tleParameters><EPHEMERIS_TYPE>0</EPHEMERIS_TYPE><CLASSIFICATION_TYPE>U</CLASSIFICATION_TYPE><NORAD_CAT_ID>54660</NORAD_CAT_ID><ELEMENT_SET_NO>999</ELEMENT_SET_NO><REV_AT_EPOCH>8037</REV_AT_EPOCH><BSTAR>.88349E-4</BSTAR><MEAN_MOTION_DOT>.49E-6</MEAN_MOTION_DOT><MEAN_MOTION_DDOT>0</MEAN_MOTION_DDOT></tleParameters></data></segment></body></omm>
<omm id="CCSDS_OMM_VERS" version="2.0">
<header><CREATION_DATE/><ORIGINATOR/></header><body><segment><metadata><OBJECT_NAME>ONEWEB-0595</OBJECT_NAME><OBJECT_ID>2022-166V</OBJECT_ID><CENTER_NAME>EARTH</CENTER_NAME><REF_FRAME>TEME</REF_FRAME><TIME_SYSTEM>UTC</TIME_SYSTEM><MEAN_ELEMENT_THEORY>SGP4</MEAN_ELEMENT_THEORY></metadata><data><meanElements><EPOCH>2024-07-23T11:58:28.922304</EPOCH><MEAN_MOTION>13.21824300</MEAN_MOTION><ECCENTRICITY>.0001606</ECCENTRICITY><INCLINATION>87.9282</INCLINATION><RA_OF_ASC_NODE>22.0600</RA_OF_ASC_NODE><ARG_OF_PERICENTER>91.3728</ARG_OF_PERICENTER><MEAN_ANOMALY>268.7590</MEAN_ANOMALY></meanElements><tleParameters><EPHEMERIS_TYPE>0</EPHEMERIS_TYPE><CLASSIFICATION_TYPE>U</CLASSIFICATION_TYPE><NORAD_CAT_ID>54661</NORAD_CAT_ID><ELEMENT_SET_NO>999</ELEMENT_SET_NO><REV_AT_EPOCH>8036</REV_AT_EPOCH><BSTAR>.24399E-4</BSTAR><MEAN_MOTION_DOT>.23E-6</MEAN_MOTION_DOT><MEAN_MOTION_DDOT>0</MEAN_MOTION_DDOT></tleParameters></data></segment></body></omm>
<omm id="CCSDS_OMM_VERS" version="2.0">
<header><CREATION_DATE/><ORIGINATOR/></header><body><segment><metadata><OBJECT_NAME>ONEWEB-0596</OBJECT_NAME><OBJECT_ID>2022-166W</OBJECT_ID><CENTER_NAME>EARTH</CENTER_NAME><REF_FRAME>TEME</REF_FRAME><TIME_SYSTEM>UTC</TIME_SYSTEM><MEAN_ELEMENT_THEORY>SGP4</MEAN_ELEMENT_THEORY></metadata><data><meanElements><EPOCH>2024-07-22T22:36:52.423488</EPOCH><MEAN_MOTION>13.21826954</MEAN_MOTION><ECCENTRICITY>.0002029</ECCENTRICITY><INCLINATION>87.9287</INCLINATION><RA_OF_ASC_NODE>22.1770</RA_OF_ASC_NODE><ARG_OF_PERICENTER>97.8306</ARG_OF_PERICENTER><MEAN_ANOMALY>262.3059</MEAN_ANOMALY></meanElements><tleParameters><EPHEMERIS_TYPE>0</EPHEMERIS_TYPE><CLASSIFICATION_TYPE>U</CLASSIFICATION_TYPE><NORAD_CAT_ID>54662</NORAD_CAT_ID><ELEMENT_SET_NO>999</ELEMENT_SET_NO><REV_AT_EPOCH>7982</REV_AT_EPOCH><BSTAR>.5858E-4</BSTAR><MEAN_MOTION_DOT>.37E-6</MEAN_MOTION_DOT><MEAN_MOTION_DDOT>0</MEAN_MOTION_DDOT></tleParameters></data></segment></body></omm>

</ndm>
